P/2020 O3 (PANSTARRS),e,8.4446,266.8186,81.4818,4.646857,0.0983932,0.10264307,119.6236,05/28.0/2024,2000,g 12.0,4.0
# From MPEC 2021-BE3
C/2020 P1 (NEOWISE),h,10/20.8399/2020,45.1701,53.4751,8.9038,1.000380,0.340736,2000,14.0,3.2
# From MPEC 2024-JU4
C/2020 P3 (ATLAS),h,04/22.1531/2021,61.8814,19.4719,82.3092,1.002818,6.813561,2000,6.0,4.0
# From MPEC 2022-PB4
C/2020 PV6 (PANSTARRS),e,128.1943,329.1441,71.3395,41.95875,0.0036264,0.94535333,3.5353,05/28.0/2024,2000,g 10.0,4.0
# From MPEC 2022-L66
C/2020 Q1 (Borisov),e,142.9449,52.3956,9.9884,61.74232,0.0020316,0.97863941,0.0000,08/14.7630/2020,2000,g 14.0,4.0
# From MPEC 2023-CD7
C/2020 Q2 (PANSTARRS),e,3.3353,179.8183,118.2873,10.62054,0.0284764,0.48995305,45.0676,05/28.0/2024,2000,g 12.0,3.2
# From MPEC 2024-F34
C/2020 R2 (PANSTARRS),e,53.2266,195.1019,211.8471,426.0375,0.0001121,0.98897857,0.0000,02/25.2570/2022,2000,g  9.0,4.0
# From MPEC 2022-K19
C/2020 R4 (ATLAS),e,164.4298,323.2579,46.6064,99.02971,0.0010001,0.98966232,0.0000,03/02.3769/2021,2000,g 13.5,4.0
# From MPEC 2023-C45
P/2020 R5 (PANSTARRS),e,11.4407,272.9493,82.7358,4.990731,0.0884011,0.31386859,129.0574,05/28.0/2024,2000,g  9.5,6.0
# From MPEC 2021-Y10
C/2020 R6 (Rankin),e,82.8362,12.1935,272.0006,299.1911,0.0001905,0.98951341,0.0000,09/07.5500/2019,2000,g 11.0,4.0
# From MPEC 2024-JU4
C/2020 R7 (ATLAS),h,09/16.1982/2022,114.9028,268.3004,347.8221,1.000126,2.954939,2000,7.0,3.2
# From MPEC 2021-BE3
P/2020 S1 (PANSTARRS),e,13.7210,129.5115,255.0751,5.998277,0.0670910,0.50748160,82.2805,05/28.0/2024,2000,g 14.0,4.0
# From MPEC 2022-ST7
C/2020 S2 (PANSTARRS),e,22.3981,197.6977,202.3699,10.23988,0.0300789,0.82817734,37.6791,05/28.0/2024,2000,g 17.0,4.0
# From MPEC 2024-JU4
C/2020 S3 (Erasmus),e,20.0240,222.5864,350.0592,145.0448,0.0005642,0.99727563,0.0000,12/11.5589/2020,2000,g 13.5,3.2
# From MPEC 2024-JU4
C/2020 S4 (PANSTARRS),h,02/09.3081/2023,20.5676,117.7031,21.0103,1.002053,3.369763,2000,8.5,3.2
# From MPEC 2021-BE3
P/2020 S5 (PANSTARRS),e,12.3437,316.0471,53.2475,4.056476,0.1206371,0.33798306,167.4464,05/28.0/2024,2000,g 14.5,4.0
# From MPEC 2021-BE3
P/2020 S7 (PANSTARRS),e,16.0797,328.0926,40.6176,5.034199,0.0872587,0.41020711,112.2487,05/28.0/2024,2000,g 14.5,4.0
# From MPEC 2021-P47
C/2020 S8 (Lemmon),e,108.5295,24.0566,160.1988,249.3759,0.0002503,0.99054385,0.0000,04/10.6587/2021,2000,g 12.5,4.0
# From MPEC 2022-TD3
C/2020 T2 (Palomar),e,27.8376,83.0579,150.4156,285.8844,0.0002039,0.99280370,0.0000,07/10.6645/2021,2000,g 11.0,3.2
# From MPEC 2021-N06
P/2020 T3 (PANSTARRS),e,7.2990,73.9932,357.0520,3.516555,0.1494610,0.59241292,182.7235,05/28.0/2024,2000,g 18.0,3.2
# From MPEC 2021-N06
C/2020 T4 (PANSTARRS),h,07/05.6061/2021,83.8530,50.6200,79.5869,1.000427,2.189978,2000,13.0,3.2
# From MPEC 2021-BE3
C/2020 T5 (Lemmon),e,66.5439,237.8279,90.3666,668.7983,0.0000570,0.99716741,0.0000,10/08.6770/2020,2000,g 16.0,4.0
# From MPEC 2021-N06
P/2020 U2 (PANSTARRS),e,6.4198,342.8632,84.6920,3.777942,0.1342212,0.51138548,167.5477,05/28.0/2024,2000,g 18.0,4.0
# From MPEC 2021-W31
C/2020 U3 (Rankin),e,30.1443,282.6366,124.4053,67.27170,0.0017863,0.96610501,2.1555,05/28.0/2024,2000,g 15.0,4.0
# From MPEC 2023-W26
C/2020 U4 (PANSTARRS),h,04/09.6365/2022,167.0153,120.3662,70.1048,1.000635,5.360552,2000,7.0,4.0
# From MPEC 2024-GJ3
C/2020 U5 (PANSTARRS),e,97.2925,107.3164,75.4506,4421,0.0000034,0.99915028,0.0000,04/28.0637/2022,2000,g  8.0,4.0
# From MPEC 2024-JU4
C/2020 V2 (ZTF),h,05/08.4625/2023,131.6122,212.3728,162.4011,1.000807,2.227842,2000,4.9,4.0
# From MPEC 2023-D72
P/2020 V3 (PANSTARRS),e,23.0304,198.2580,249.5677,8.397701,0.0405008,0.25767907,48.6245,05/28.0/2024,2000,g  8.3,4.0
# From MPEC 2024-F34
P/2020 V4 (Rankin),e,14.2432,203.4849,257.1216,9.383909,0.0342869,0.45120532,35.7828,05/28.0/2024,2000,g  9.0,4.0
# From MPEC 2021-BE3
P/2020 W1 (Rankin),e,10.7809,124.3934,265.2534,7.221757,0.0507855,0.26612372,76.6154,05/28.0/2024,2000,g 10.0,4.0
# From MPEC 2021-BE3
C/2020 W5 (Lemmon),h,11/30.4930/2020,88.6142,75.4688,24.5396,1.001550,3.367208,2000,15.0,4.0
# From MPEC 2024-JU4
P/2020 WJ5 (Lemmon),e,22.2897,177.7939,338.0619,6.015260,0.0668071,0.17172255,71.0189,05/28.0/2024,2000,g  8.5,4.0
# From MPEC 2024-F34
P/2020 X1 (ATLAS),e,31.6962,55.9801,323.4953,4.533706,0.1020996,0.36508077,143.6810,05/28.0/2024,2000,g 13.0,4.0
# From MPEC 2024-A43
C/2020 X2 (ATLAS),e,18.1849,105.3819,347.4605,16.49806,0.0147080,0.76797010,18.9487,05/28.0/2024,2000,g 10.6,4.0
# From MPEC 2021-S45
C/2020 X4 (Leonard),e,80.6341,161.9183,140.3179,40.71532,0.0037937,0.87168147,4.8907,05/28.0/2024,2000,g  9.0,4.0
# From MPEC 2024-C04
C/2020 Y2 (ATLAS),e,101.1894,26.5335,266.4163,1804,0.0000129,0.99825644,0.0000,06/18.2497/2022,2000,g  6.5,4.0
# From MPEC 2021-R75
C/2020 Y3 (ATLAS),e,83.1116,191.4121,341.8850,139.1748,0.0006003,0.98568156,0.0000,12/03.2514/2020,2000,g 13.5,4.0
# From MPEC 2023-CD7
C/2021 A1 (Leonard),h,01/03.4100/2022,132.7509,255.9104,225.1442,1.000128,0.616173,2000,8.5,4.0
# From MPEC 2022-F14
C/2021 A2 (NEOWISE),e,107.0179,125.1288,338.7685,228.3879,0.0002856,0.99381342,0.0000,01/22.1757/2021,2000,g 13.5,4.0
# From MPEC 2022-ED3
C/2021 A4 (NEOWISE),e,111.5786,307.1011,204.7252,42.38458,0.0035718,0.97289624,0.0000,03/19.5286/2021,2000,g 16.0,4.0
# From MPEC 2021-BE3
P/2021 A5 (PANSTARRS),e,18.1858,328.8205,61.4024,3.047364,0.1852754,0.13992363,239.2499,05/28.0/2024,2000,g 15.0,4.0
# From MPEC 2023-O39
C/2021 A6 (PANSTARRS),e,75.5837,164.0562,351.6093,8971,0.0000012,0.99911670,0.0000,05/02.8742/2021,2000,g  7.0,4.0
# From MPEC 2022-M88
C/2021 A7 (NEOWISE),e,78.1759,154.4609,355.9844,1833,0.0000126,0.99892802,0.0000,07/15.1297/2021,2000,g 10.0,4.0
# From MPEC 2024-GJ3
C/2021 A9 (PANSTARRS),h,12/02.3790/2023,158.0127,314.8330,211.5014,1.001017,7.760277,2000,6.0,4.0
# From MPEC 2021-N06
C/2021 A10 (NEOWISE),e,151.9591,188.7606,82.5240,89.40836,0.0011658,0.98586593,0.0000,03/14.9783/2021,2000,g 19.0,4.0
# From MPEC 2022-L66
C/2021 B2 (PANSTARRS),e,38.0826,120.4871,335.0228,383.8854,0.0001310,0.99345647,0.0000,05/04.6386/2021,2000,g 14.0,4.0
# From MPEC 2021-N06
C/2021 B3 (NEOWISE),e,119.4741,67.2724,293.5426,34.26166,0.0049146,0.93686082,5.7748,05/28.0/2024,2000,g 13.5,4.0
# From MPEC 2023-KD6
C/2021 C1 (Rankin),e,143.0429,186.8738,336.1425,3058,0.0000058,0.99886381,0.0000,12/06.5122/2020,2000,g 11.5,4.0
# From MPEC 2021-U31
P/2021 C2 (PANSTARRS),e,21.9406,66.4562,78.6953,9.537965,0.0334596,0.48784679,39.7916,05/28.0/2024,2000,g 12.0,4.0
# From MPEC 2021-N06
C/2021 C3 (Catalina),e,122.1759,181.9028,357.0144,60.94468,0.0020716,0.96269941,2.4886,05/28.0/2024,2000,g 14.0,4.0
# From MPEC 2022-M88
C/2021 C4 (ATLAS),e,132.8458,194.2642,320.1152,9852,0.0000010,0.99954352,0.0000,01/16.7355/2021,2000,g  9.0,4.0
# From MPEC 2023-R20
C/2021 C5 (PANSTARRS),e,50.7909,323.6736,270.9155,1794,0.0000130,0.99819282,0.0000,02/11.0009/2023,2000,g  9.0,4.0
# From MPEC 2022-YB4
C/2021 C6 (Lemmon),e,164.6041,332.3467,203.8204,3578,0.0000046,0.99908353,0.0000,11/12.4050/2021,2000,g 12.0,4.0
# From MPEC 2022-F14
C/2021 D1 (SWAN),e,31.3984,311.2360,72.3328,101.6254,0.0009621,0.99109874,0.0000,02/27.7204/2021,2000,g 13.0,4.0
# From MPEC 2023-J29
C/2021 D2 (ZTF),h,02/03.9099/2022,83.7915,305.6571,125.0340,1.001570,2.946803,2000,9.0,4.0
# From MPEC 2022-UY9
A/2021 E2,e,167.4897,190.7971,342.2994,211.5775,0.0003203,0.98921094,0.0000,12/09.9051/2020,2000,g 15.0,2.0
# From MPEC 2024-GJ3
C/2021 E3 (ZTF),h,06/11.7453/2022,112.5312,104.4832,228.8303,1.000478,1.777118,2000,8.5,4.0
# From MPEC 2023-SQ0
A/2021 E4,e,116.3640,171.1621,48.2666,526.7848,0.0000815,0.99112117,0.0000,04/24.9885/2022,2000,g 13.5,22.0
# From MPEC 2022-QD9
C/2021 F1 (Lemmon-PANSTARRS),e,107.3149,203.4814,146.8864,243.1606,0.0002599,0.99589732,0.0000,04/06.7726/2022,2000,g 13.5,4.0
# From MPEC 2021-J72
C/2021 G1 (Leonard),e,131.5491,270.6999,107.4387,72.31381,0.0016028,0.95263788,1.6696,05/28.0/2024,2000,g 14.0,4.0
# From MPEC 2024-JU4
C/2021 G2 (ATLAS),h,09/09.2669/2024,48.4743,221.0944,343.2856,1.000057,4.982351,2000,5.5,4.0
# From MPEC 2022-X67
C/2021 G3 (PANSTARRS),e,102.8694,147.3804,10.5803,11023,0.0000009,0.99953006,0.0000,10/17.8917/2021,2000,g 10.5,4.0
# From MPEC 2021-Y10
P/2021 HS (PANSTARRS),e,12.1559,262.3637,46.1404,4.194314,0.1147394,0.80952030,117.7498,05/28.0/2024,2000,g 22.0,4.0
# From MPEC 2022-C56
C/2021 J1 (Maury-Attard),e,92.7130,88.4125,147.2743,26.29794,0.0073084,0.93390012,8.7235,05/28.0/2024,2000,g 15.5,4.0
# From MPEC 2023-XP6
C/2021 J2 (PANSTARRS),e,156.2125,23.3296,171.9489,114.9459,0.0007998,0.95909148,0.7833,05/28.0/2024,2000,g 12.0,4.0
# From MPEC 2024-F34
P/2021 J3 (ATLAS),e,14.5233,111.0950,125.8264,8.911045,0.0370520,0.44901047,66.4010,05/28.0/2024,2000,g  7.0,4.0
# From MPEC 2022-O08
C/2021 K1 (ATLAS),e,16.2734,140.9159,184.2648,12.64130,0.0219289,0.80218707,24.5693,05/28.0/2024,2000,g 11.0,4.0
# From MPEC 2022-O01
C/2021 K2 (MASTER),h,09/09.6462/2021,100.8636,282.3207,343.3386,1.000892,5.468272,2000,8.0,4.0
# From MPEC 2022-L66
C/2021 K3 (Catalina),h,02/03.9380/2022,134.7780,114.5840,182.0520,1.004481,5.231432,2000,10.0,4.0
# From MPEC 2021-W31
P/2021 L2 (Leonard),e,21.0649,266.6540,51.4923,4.048446,0.1209962,0.52078824,125.7491,05/28.0/2024,2000,g 17.0,4.0
# From MPEC 2024-H50
C/2021 L3 (Borisov),h,02/14.6885/2022,78.5628,344.9975,91.6327,1.004500,8.458729,2000,6.0,4.0
# From MPEC 2022-TA0
P/2021 N1 (ZTF),e,11.4890,301.1481,21.2392,2.978800,0.1917088,0.67594997,208.3913,05/28.0/2024,2000,g 19.0,4.0
# From MPEC 2024-GJ3
P/2021 N2 (Fuls),e,13.0612,221.7317,177.5554,6.943379,0.0538701,0.45254931,49.8678,05/28.0/2024,2000,g  9.5,4.0
# From MPEC 2022-YB4
C/2021 N3 (PANSTARRS),e,26.7498,337.5034,304.7078,145.3641,0.0005624,0.96067321,0.7754,05/28.0/2024,2000,g  8.5,4.0
# From MPEC 2022-A21
C/2021 O1 (Nishimura),e,27.5938,41.5918,74.3901,2890,0.0000063,0.99972882,0.0000,08/14.3133/2021,2000,g 10.5,4.0
# From MPEC 2022-L66
C/2021 O3 (PANSTARRS),h,04/21.1212/2022,56.8013,188.9506,299.9590,1.000043,0.285989,2000,10.5,4.0
# From MPEC 2024-F34
